SES-18                  
1 55970U 23038A   26117.01155927  .00000000  00000+0  00000+0 0  9997
2 55970   0.0198 252.0815 0001338  89.4860 134.4938  1.00269410 11590
SES-19                  
1 55971U 23038B   26117.19966600  .00000078  00000+0  00000+0 0  9990
2 55971   0.0209 285.7854 0001569 103.1091 123.2724  1.00271297 11580
INTELSAT 40E (IS-40E)   
1 56174U 23052A   26117.19252382 -.00000184  00000+0  00000+0 0  9996
2 56174   0.0139 238.6065 0001099 198.9307 115.9540  1.00272133 11314
VIASAT-3 F1             
1 56370U 23060A   26117.04685473 -.00000196  00000+0  00000+0 0  9991
2 56370   0.0169 278.7228 0001104 166.2945  57.9937  1.00271212 10922
ARCTURUS                
1 56371U 23060B   26116.96997176 -.00000071  00000+0  00000+0 0  9990
2 56371   2.6442  80.5687 0001623 358.0152 198.0876  1.00269907 10949
GS-1                    
1 56372U 23060C   26116.87752946 -.00000220  00000+0  00000+0 0  9991
2 56372   2.5944  80.4043 0004450 274.4448 263.5069  1.00288335  7024
BEIDOU-3 G4             
1 56564U 23066A   26116.94952769 -.00000293  00000+0  00000+0 0  9993
2 56564   0.5570 320.0463 0002817 160.5187 216.2962  1.00272365 10880
ARABSAT-7B (BADR-8)     
1 56757U 23075A   26117.21155843  .00000135  00000+0  00000+0 0  9990
2 56757   0.0802  34.6021 0005082 336.4566 306.3074  1.00272771 10603
NVS-01 (IRNSS-1J)       
1 56759U 23076A   26117.23197501 -.00000348  00000+0  00000+0 0  9999
2 56759   2.2858 246.5447 0005392  50.2517 131.4524  1.00268247 10607
NUSANTARA TIGA (SATRIA) 
1 57045U 23086A   26117.22127906 -.00000245  00000+0  00000+0 0  9996
2 57045   0.0476 313.4700 0004945  24.2281 103.1787  1.00271363  9255
FALCON 9 R/B            
1 57046U 23086B   26116.58644043 -.00000475  00000+0 -94383-2 0  9997
2 57046  26.7355 221.4797 7799862 163.2510 257.2633  1.46549083 14889
H2SAT (HEINRICH HERTZ)  
1 57213U 23093A   26117.22267126  .00000000  00000+0  00000+0 0  9998
2 57213   0.0173 229.4810 0001001 262.3438 164.2527  1.00270609 10404
SYRACUSE 4B             
1 57214U 23093B   26117.22822620  .00000000  00000+0  00000+0 0  9995
2 57214   0.0141 232.8214 0000255 206.7453 211.3567  1.00269530  6454
JUPITER 3 (ECHOSTAR 24) 
1 57479U 23108A   26116.66822444  .00000000  00000+0  00000+0 0  9996
2 57479   0.0177 241.9086 0001054 161.8593 316.2405  1.00269999 10122
FALCON HEAVY R/B        
1 57480U 23108B   26116.54725721 -.00000036  00000+0  00000+0 0  9995
2 57480  11.2326  98.4640 4944370  21.7527 353.4636  1.84352886 18494
GALAXY 37 (G-37)        
1 57493U 23112A   26117.16294919  .00000000  00000+0  00000+0 0  9993
2 57493   0.0126 245.2489 0002223 150.0018 111.5676  1.00270413 10036
ATLAS 5 CENTAUR DEB     
1 57587U 18079HN  26114.09210455 -.00000104  00000+0  00000+0 0  9991
2 57587  13.5560  45.9338 4694968 287.3030  27.9005  1.77533054 21680
