[{"OBJECT_NAME":"SES-18","OBJECT_ID":"2023-038A","EPOCH":"2026-04-27T00:16:38.720928","MEAN_MOTION":1.0026941,"ECCENTRICITY":0.00013385,"INCLINATION":0.0198,"RA_OF_ASC_NODE":252.0815,"ARG_OF_PERICENTER":89.486,"MEAN_ANOMALY":134.4938,"EPHEMERIS_TYPE":0,"CLASSIFICATION_TYPE":"U","NORAD_CAT_ID":55970,"ELEMENT_SET_NO":999,"REV_AT_EPOCH":1159,"BSTAR":0,"MEAN_MOTION_DOT":0,"MEAN_MOTION_DDOT":0},{"OBJECT_NAME":"SES-19","OBJECT_ID":"2023-038B","EPOCH":"2026-04-27T04:47:31.142400","MEAN_MOTION":1.00271297,"ECCENTRICITY":0.00015693,"INCLINATION":0.0209,"RA_OF_ASC_NODE":285.7854,"ARG_OF_PERICENTER":103.1091,"MEAN_ANOMALY":123.2724,"EPHEMERIS_TYPE":0,"CLASSIFICATION_TYPE":"U","NORAD_CAT_ID":55971,"ELEMENT_SET_NO":999,"REV_AT_EPOCH":1158,"BSTAR":0,"MEAN_MOTION_DOT":7.8e-7,"MEAN_MOTION_DDOT":0},{"OBJECT_NAME":"INTELSAT 40E (IS-40E)","OBJECT_ID":"2023-052A","EPOCH":"2026-04-27T04:37:14.058048","MEAN_MOTION":1.00272133,"ECCENTRICITY":0.00010992,"INCLINATION":0.0139,"RA_OF_ASC_NODE":238.6065,"ARG_OF_PERICENTER":198.9307,"MEAN_ANOMALY":115.954,"EPHEMERIS_TYPE":0,"CLASSIFICATION_TYPE":"U","NORAD_CAT_ID":56174,"ELEMENT_SET_NO":999,"REV_AT_EPOCH":1131,"BSTAR":0,"MEAN_MOTION_DOT":-1.84e-6,"MEAN_MOTION_DDOT":0},{"OBJECT_NAME":"VIASAT-3 F1","OBJECT_ID":"2023-060A","EPOCH":"2026-04-27T01:07:28.248672","MEAN_MOTION":1.00271212,"ECCENTRICITY":0.0001104,"INCLINATION":0.0169,"RA_OF_ASC_NODE":278.7228,"ARG_OF_PERICENTER":166.2945,"MEAN_ANOMALY":57.9937,"EPHEMERIS_TYPE":0,"CLASSIFICATION_TYPE":"U","NORAD_CAT_ID":56370,"ELEMENT_SET_NO":999,"REV_AT_EPOCH":1092,"BSTAR":0,"MEAN_MOTION_DOT":-1.96e-6,"MEAN_MOTION_DDOT":0},{"OBJECT_NAME":"ARCTURUS","OBJECT_ID":"2023-060B","EPOCH":"2026-04-26T23:16:45.560064","MEAN_MOTION":1.00269907,"ECCENTRICITY":0.0001623,"INCLINATION":2.6442,"RA_OF_ASC_NODE":80.5687,"ARG_OF_PERICENTER":358.0152,"MEAN_ANOMALY":198.0876,"EPHEMERIS_TYPE":0,"CLASSIFICATION_TYPE":"U","NORAD_CAT_ID":56371,"ELEMENT_SET_NO":999,"REV_AT_EPOCH":1094,"BSTAR":0,"MEAN_MOTION_DOT":-7.1e-7,"MEAN_MOTION_DDOT":0},{"OBJECT_NAME":"GS-1","OBJECT_ID":"2023-060C","EPOCH":"2026-04-26T21:03:38.545344","MEAN_MOTION":1.00288335,"ECCENTRICITY":0.00044506,"INCLINATION":2.5944,"RA_OF_ASC_NODE":80.4043,"ARG_OF_PERICENTER":274.4448,"MEAN_ANOMALY":263.5069,"EPHEMERIS_TYPE":0,"CLASSIFICATION_TYPE":"U","NORAD_CAT_ID":56372,"ELEMENT_SET_NO":999,"REV_AT_EPOCH":702,"BSTAR":0,"MEAN_MOTION_DOT":-2.2e-6,"MEAN_MOTION_DDOT":0},{"OBJECT_NAME":"BEIDOU-3 G4","OBJECT_ID":"2023-066A","EPOCH":"2026-04-26T22:47:19.192416","MEAN_MOTION":1.00272365,"ECCENTRICITY":0.0002817,"INCLINATION":0.557,"RA_OF_ASC_NODE":320.0463,"ARG_OF_PERICENTER":160.5187,"MEAN_ANOMALY":216.2962,"EPHEMERIS_TYPE":0,"CLASSIFICATION_TYPE":"U","NORAD_CAT_ID":56564,"ELEMENT_SET_NO":999,"REV_AT_EPOCH":1088,"BSTAR":0,"MEAN_MOTION_DOT":-2.93e-6,"MEAN_MOTION_DDOT":0},{"OBJECT_NAME":"ARABSAT-7B (BADR-8)","OBJECT_ID":"2023-075A","EPOCH":"2026-04-27T05:04:38.648352","MEAN_MOTION":1.00272771,"ECCENTRICITY":0.00050827,"INCLINATION":0.0802,"RA_OF_ASC_NODE":34.6021,"ARG_OF_PERICENTER":336.4566,"MEAN_ANOMALY":306.3074,"EPHEMERIS_TYPE":0,"CLASSIFICATION_TYPE":"U","NORAD_CAT_ID":56757,"ELEMENT_SET_NO":999,"REV_AT_EPOCH":1060,"BSTAR":0,"MEAN_MOTION_DOT":1.35e-6,"MEAN_MOTION_DDOT":0},{"OBJECT_NAME":"NVS-01 (IRNSS-1J)","OBJECT_ID":"2023-076A","EPOCH":"2026-04-27T05:34:02.640864","MEAN_MOTION":1.00268247,"ECCENTRICITY":0.00053925,"INCLINATION":2.2858,"RA_OF_ASC_NODE":246.5447,"ARG_OF_PERICENTER":50.2517,"MEAN_ANOMALY":131.4524,"EPHEMERIS_TYPE":0,"CLASSIFICATION_TYPE":"U","NORAD_CAT_ID":56759,"ELEMENT_SET_NO":999,"REV_AT_EPOCH":1060,"BSTAR":0,"MEAN_MOTION_DOT":-3.48e-6,"MEAN_MOTION_DDOT":0},{"OBJECT_NAME":"NUSANTARA TIGA (SATRIA)","OBJECT_ID":"2023-086A","EPOCH":"2026-04-27T05:18:38.510784","MEAN_MOTION":1.00271363,"ECCENTRICITY":0.00049459,"INCLINATION":0.0476,"RA_OF_ASC_NODE":313.47,"ARG_OF_PERICENTER":24.2281,"MEAN_ANOMALY":103.1787,"EPHEMERIS_TYPE":0,"CLASSIFICATION_TYPE":"U","NORAD_CAT_ID":57045,"ELEMENT_SET_NO":999,"REV_AT_EPOCH":925,"BSTAR":0,"MEAN_MOTION_DOT":-2.45e-6,"MEAN_MOTION_DDOT":0},{"OBJECT_NAME":"FALCON 9 R/B","OBJECT_ID":"2023-086B","EPOCH":"2026-04-26T14:04:28.453152","MEAN_MOTION":1.46549083,"ECCENTRICITY":0.77998625,"INCLINATION":26.7355,"RA_OF_ASC_NODE":221.4797,"ARG_OF_PERICENTER":163.251,"MEAN_ANOMALY":257.2633,"EPHEMERIS_TYPE":0,"CLASSIFICATION_TYPE":"U","NORAD_CAT_ID":57046,"ELEMENT_SET_NO":999,"REV_AT_EPOCH":1488,"BSTAR":-0.0094383134,"MEAN_MOTION_DOT":-4.75e-6,"MEAN_MOTION_DDOT":0},{"OBJECT_NAME":"H2SAT (HEINRICH HERTZ)","OBJECT_ID":"2023-093A","EPOCH":"2026-04-27T05:20:38.796864","MEAN_MOTION":1.00270609,"ECCENTRICITY":0.00010013,"INCLINATION":0.0173,"RA_OF_ASC_NODE":229.481,"ARG_OF_PERICENTER":262.3438,"MEAN_ANOMALY":164.2527,"EPHEMERIS_TYPE":0,"CLASSIFICATION_TYPE":"U","NORAD_CAT_ID":57213,"ELEMENT_SET_NO":999,"REV_AT_EPOCH":1040,"BSTAR":0,"MEAN_MOTION_DOT":0,"MEAN_MOTION_DDOT":0},{"OBJECT_NAME":"SYRACUSE 4B","OBJECT_ID":"2023-093B","EPOCH":"2026-04-27T05:28:38.743680","MEAN_MOTION":1.0026953,"ECCENTRICITY":2.552e-5,"INCLINATION":0.0141,"RA_OF_ASC_NODE":232.8214,"ARG_OF_PERICENTER":206.7453,"MEAN_ANOMALY":211.3567,"EPHEMERIS_TYPE":0,"CLASSIFICATION_TYPE":"U","NORAD_CAT_ID":57214,"ELEMENT_SET_NO":999,"REV_AT_EPOCH":645,"BSTAR":0,"MEAN_MOTION_DOT":0,"MEAN_MOTION_DDOT":0},{"OBJECT_NAME":"JUPITER 3 (ECHOSTAR 24)","OBJECT_ID":"2023-108A","EPOCH":"2026-04-26T16:02:14.591616","MEAN_MOTION":1.00269999,"ECCENTRICITY":0.00010548,"INCLINATION":0.0177,"RA_OF_ASC_NODE":241.9086,"ARG_OF_PERICENTER":161.8593,"MEAN_ANOMALY":316.2405,"EPHEMERIS_TYPE":0,"CLASSIFICATION_TYPE":"U","NORAD_CAT_ID":57479,"ELEMENT_SET_NO":999,"REV_AT_EPOCH":1012,"BSTAR":0,"MEAN_MOTION_DOT":0,"MEAN_MOTION_DDOT":0},{"OBJECT_NAME":"FALCON HEAVY R/B","OBJECT_ID":"2023-108B","EPOCH":"2026-04-26T13:08:03.022944","MEAN_MOTION":1.84352886,"ECCENTRICITY":0.49443709,"INCLINATION":11.2326,"RA_OF_ASC_NODE":98.464,"ARG_OF_PERICENTER":21.7527,"MEAN_ANOMALY":353.4636,"EPHEMERIS_TYPE":0,"CLASSIFICATION_TYPE":"U","NORAD_CAT_ID":57480,"ELEMENT_SET_NO":999,"REV_AT_EPOCH":1849,"BSTAR":0,"MEAN_MOTION_DOT":-3.6e-7,"MEAN_MOTION_DDOT":0},{"OBJECT_NAME":"GALAXY 37 (G-37)","OBJECT_ID":"2023-112A","EPOCH":"2026-04-27T03:54:38.810016","MEAN_MOTION":1.00270413,"ECCENTRICITY":0.00022239,"INCLINATION":0.0126,"RA_OF_ASC_NODE":245.2489,"ARG_OF_PERICENTER":150.0018,"MEAN_ANOMALY":111.5676,"EPHEMERIS_TYPE":0,"CLASSIFICATION_TYPE":"U","NORAD_CAT_ID":57493,"ELEMENT_SET_NO":999,"REV_AT_EPOCH":1003,"BSTAR":0,"MEAN_MOTION_DOT":0,"MEAN_MOTION_DDOT":0},{"OBJECT_NAME":"ATLAS 5 CENTAUR DEB","OBJECT_ID":"2018-079HN","EPOCH":"2026-04-24T02:12:37.833120","MEAN_MOTION":1.77533054,"ECCENTRICITY":0.46949681,"INCLINATION":13.556,"RA_OF_ASC_NODE":45.9338,"ARG_OF_PERICENTER":287.303,"MEAN_ANOMALY":27.9005,"EPHEMERIS_TYPE":0,"CLASSIFICATION_TYPE":"U","NORAD_CAT_ID":57587,"ELEMENT_SET_NO":999,"REV_AT_EPOCH":2168,"BSTAR":0,"MEAN_MOTION_DOT":-1.04e-6,"MEAN_MOTION_DDOT":0}]
